NORAD_CAT_ID,OBJECT_NAME,OBJECT_TYPE,EPOCH,MEAN_MOTION,ECCENTRICITY,INCLINATION,RA_OF_ASC_NODE,ARG_OF_PERICENTER,MEAN_ANOMALY,BSTAR,MEAN_MOTION_DOT,MEAN_MOTION_DDOT,TLE_LINE0,TLE_LINE1,TLE_LINE2,SEMIMAJOR_AXIS,PERIOD,APOGEE,PERIGEE,DECAYED
53388.0,STARLINK-4522,PAYLOAD,2022-10-08 22:00:00,15.08830087,0.000196,53.2168,325.6017,32.0659,97.0374,0.0001204,1.628e-05,0.0,0 STARLINK-4522,1 53388U 22097A   22281.91667824  .00001628  00000-0  12040-3 0  9992,2 53388  53.2168 325.6017 0001960  32.0659  97.0374 15.08830087  1303,6917.911,95.438,541.132,538.42,0.0
53388.0,STARLINK-4522,PAYLOAD,2022-10-09 06:00:00,15.08843459,0.0002021999999999,53.2165,324.1131,35.946,104.7264,-0.00051587,-8.49e-05,0.0,0 STARLINK-4522,1 53388U 22097A   22282.25001157 -.00008490  00000-0 -51587-3 0  9996,2 53388  53.2165 324.1131 0002022  35.9460 104.7264 15.08843459  9694,6917.87,95.437,541.134,538.336,0.0
53388.0,STARLINK-4522,PAYLOAD,2022-10-09 14:00:01,15.08833521,0.0002183,53.2159,322.6178,31.6658,120.6079,0.00092081,0.00014395,0.0,0 STARLINK-4522,1 53388U 22097A   22282.58334491  .00014395  00000-0  92081-3 0  9995,2 53388  53.2159 322.6178 0002183  31.6658 120.6079 15.08833521  1301,6917.9,95.438,541.275,538.255,0.0
53388.0,STARLINK-4522,PAYLOAD,2022-10-09 22:00:00,15.08829329,0.0001993,53.2157,321.1197,34.8036,129.0685,0.0012856,0.00020226,0.0,0 STARLINK-4522,1 53388U 22097A   22282.91667824  .00020226  00000-0  12856-2 0  9992,2 53388  53.2157 321.1197 0001993  34.8036 129.0685 15.08829329  1304,6917.913000000001,95.438,541.1569999999998,538.399,0.0
53388.0,STARLINK-4522,PAYLOAD,2022-10-10 08:00:01,15.08833653,0.0002193,53.2161,319.2448,37.0862,231.2842,0.00055469,8.549e-05,0.0,0 STARLINK-4522,1 53388U 22097A   22283.33334491  .00008549  00000-0  55469-3 0  9992,2 53388  53.2161 319.2448 0002193  37.0862 231.2842 15.08833653  9855,6917.9,95.438,541.2819999999998,538.248,0.0
53388.0,STARLINK-4522,PAYLOAD,2022-10-10 14:00:01,15.08879212,0.0002218,53.2163,318.1169,34.5946,152.4654,-0.0073708,-0.00115843,0.0,0 STARLINK-4522,1 53388U 22097A   22283.58334491 -.00115843  00000-0 -73708-2 0  9992,2 53388  53.2163 318.1169 0002218  34.5946 152.4654 15.08879212  1306,6917.761,95.435,541.16,538.091,0.0
53388.0,STARLINK-4522,PAYLOAD,2022-10-10 22:00:01,15.08893148,0.0002032999999999,53.2162,316.6176,34.186,164.5719,-0.013205,-0.00204835,0.0,0 STARLINK-4522,1 53388U 22097A   22283.91668981 -.00204835  00000-0 -13205-1 0  9998,2 53388  53.2162 316.6176 0002033  34.1860 164.5719 15.08893148  1302,6917.718000000003,95.434,540.989,538.177,0.0
53388.0,STARLINK-4522,PAYLOAD,2022-10-11 06:00:00,15.08829854,0.0002081,53.2155,315.1333,35.6036,174.63299999999995,-0.00033968,-5.689e-05,0.0,0 STARLINK-4522,1 53388U 22097A   22284.25001157 -.00005689  00000-0 -33968-3 0  9998,2 53388  53.2155 315.1333 0002081  35.6036 174.6330 15.08829854  9994,6917.911,95.438,541.216,538.337,0.0
53388.0,STARLINK-4522,PAYLOAD,2022-10-11 14:00:01,15.087816,0.0002061999999999,53.2168,313.6188,30.4219,191.4198,0.0055116,0.0008839,0.0,0 STARLINK-4522,1 53388U 22097A   22284.58334491  .00088390  00000-0  55116-2 0  9990,2 53388  53.2168 313.6188 0002062  30.4219 191.4198 15.08781600  1306,6918.059,95.441,541.35,538.497,0.0
53388.0,STARLINK-4522,PAYLOAD,2022-10-11 22:00:00,15.08803463,0.0002011,53.2151,312.1404,33.6247,199.7775,0.0024648,0.00039119,0.0,0 STARLINK-4522,1 53388U 22097A   22284.91667824  .00039119  00000-0  24648-2 0  9997,2 53388  53.2151 312.1404 0002011  33.6247 199.7775 15.08803463  1307,6917.9919999999975,95.44,541.248,538.466,0.0
53388.0,STARLINK-4522,PAYLOAD,2022-10-12 14:00:01,15.08838312,0.0002218,53.2159,309.1382,31.5765,224.9876,0.0017847,0.00028229,0.0,0 STARLINK-4522,1 53388U 22097A   22285.58334491  .00028229  00000-0  17847-2 0  9995,2 53388  53.2159 309.1382 0002218  31.5765 224.9876 15.08838312 10198,6917.886,95.438,541.285,538.216,0.0
53388.0,STARLINK-4522,PAYLOAD,2022-10-12 22:00:00,15.08841701,0.0001938,53.2171,307.6318,33.5497,234.6321,-0.00049938,-8.228e-05,0.0,0 STARLINK-4522,1 53388U 22097A   22285.91667824 -.00008228  00000-0 -49938-3 0  9997,2 53388  53.2171 307.6318 0001938  33.5497 234.6321 15.08841701  1308,6917.875,95.437,541.081,538.4,0.0
53388.0,STARLINK-4522,PAYLOAD,2022-10-13 06:00:00,15.08832201,0.0002104,53.216,306.1455,35.3985,244.3431,0.0019320999999999,0.00030589,0.0,0 STARLINK-4522,1 53388U 22097A   22286.25001157  .00030589  00000-0  19321-2 0  9991,2 53388  53.2160 306.1455 0002104  35.3985 244.3431 15.08832201 10293,6917.904,95.438,541.225,538.314,0.0
53388.0,STARLINK-4522,PAYLOAD,2022-10-13 14:00:01,15.08886032,0.0002005999999999,53.2163,304.6423,35.6127,255.7246,-0.0043735,-0.00069312,0.0,0 STARLINK-4522,1 53388U 22097A   22286.58334491 -.00069312  00000-0 -43735-2 0  9991,2 53388  53.2163 304.6423 0002006  35.6127 255.7246 15.08886032  1309,6917.74,95.435,540.992,538.217,0.0
53388.0,STARLINK-4522,PAYLOAD,2022-10-13 20:00:01,15.08835677,0.0001815,53.2175,303.5125,39.9327,170.196,0.00013647,1.884e-05,0.0,0 STARLINK-4522,1 53388U 22097A   22286.83335648  .00001884  00000-0  13647-3 0  9992,2 53388  53.2175 303.5125 0001815  39.9327 170.1960 15.08835677 10385,6917.894,95.438,541.014,538.503,0.0
53388.0,STARLINK-4522,PAYLOAD,2022-10-13 22:00:00,15.08834709,0.0001803,53.2173,303.138,40.2193,262.7452,0.00023116,3.392e-05,0.0,0 STARLINK-4522,1 53388U 22097A   22286.91667824  .00003392  00000-0  23116-3 0  9993,2 53388  53.2173 303.1380 0001803  40.2193 262.7452 15.08834709  1306,6917.897,95.438,541.009,538.514,0.0
53388.0,STARLINK-4522,PAYLOAD,2022-10-14 14:00:01,15.08838848,0.0002034,53.2171,300.1468,32.1081,294.0383,-0.00023241,-3.985e-05,0.0,0 STARLINK-4522,1 53388U 22097A   22287.58334491 -.00003985  00000-0 -23241-3 0  9997,2 53388  53.2171 300.1468 0002034  32.1081 294.0383 15.08838848  1300,6917.884,95.438,541.156,538.342,0.0
53388.0,STARLINK-4522,PAYLOAD,2022-10-14 22:00:00,15.08834331,0.0001925,53.2173,298.6488,34.5748,303.1666,0.00026442,3.922e-05,0.0,0 STARLINK-4522,1 53388U 22097A   22287.91667824  .00003922  00000-0  26442-3 0  9998,2 53388  53.2173 298.6488 0001925  34.5748 303.1666 15.08834331 10555,6917.898,95.438,541.094,538.431,0.0
53388.0,STARLINK-4522,PAYLOAD,2022-10-15 14:00:01,15.08846604,0.0002338,53.2161,295.6805,27.3193,333.634,-0.00014871,-2.655e-05,0.0,0 STARLINK-4522,1 53388U 22097A   22288.58334491 -.00002655  00000-0 -14871-3 0  9990,2 53388  53.2161 295.6805 0002338  27.3193 333.6340 15.08846604 10659,6917.86,95.437,541.3430000000002,538.1080000000002,0.0
53388.0,STARLINK-4522,PAYLOAD,2022-10-15 22:00:01,15.08889015,0.0002163,53.2167,294.1707,29.417,343.2236,-0.0122099999999999,-0.00189799,0.0,0 STARLINK-4522,1 53388U 22097A   22288.91668981 -.00189799  00000-0 -12210-1 0  9999,2 53388  53.2167 294.1707 0002163  29.4170 343.2236 15.08889015  1300,6917.731,95.434,541.092,538.099,0.0
53388.0,STARLINK-4522,PAYLOAD,2022-10-16 14:00:01,15.0885305,0.0002343999999999,53.2159,291.1914,29.0355,6.6772,-0.0029457,-0.00046883,0.0,0 STARLINK-4522,1 53388U 22097A   22289.58334491 -.00046883  00000-0 -29457-2 0  9997,2 53388  53.2159 291.1914 0002344  29.0355   6.6772 15.08853050  1305,6917.840999999999,95.437,541.327,538.0840000000002,0.0
53388.0,STARLINK-4522,PAYLOAD,2022-10-16 22:00:00,15.08800171,0.0002143,53.216,289.692,35.1038,12.2073,0.0036115,0.00057597,0.0,0 STARLINK-4522,1 53388U 22097A   22289.91667824  .00057597  00000-0  36115-2 0  9994,2 53388  53.2160 289.6920 0002143  35.1038  12.2073 15.08800171  1302,6918.002,95.44,541.35,538.385,0.0
53388.0,STARLINK-4522,PAYLOAD,2022-10-17 06:00:00,15.0884305,0.0002355999999999,53.2161,288.1984,34.0473,24.8387,-0.00061788,-0.0001010999999999,0.0,0 STARLINK-4522,1 53388U 22097A   22290.25001157 -.00010110  00000-0 -61788-3 0  9991,2 53388  53.2161 288.1984 0002356  34.0473  24.8387 15.08843050 10900,6917.871,95.437,541.366,538.106,0.0
53388.0,STARLINK-4522,PAYLOAD,2022-10-17 14:00:01,15.08870952,0.0002376,53.2154,286.702,32.1129,38.3672,-0.0024538,-0.00039163,0.0,0 STARLINK-4522,1 53388U 22097A   22290.58334491 -.00039163  00000-0 -24538-2 0  9997,2 53388  53.2154 286.7020 0002376  32.1129  38.3672 15.08870952  1308,6917.786,95.436,541.294,538.007,0.0
53388.0,STARLINK-4522,PAYLOAD,2022-10-17 22:00:00,15.08859739,0.0002148,53.2161,285.1928,33.6147,48.4896,-0.0059755,-0.00094201,0.0,0 STARLINK-4522,1 53388U 22097A   22290.91667824 -.00094201  00000-0 -59755-2 0  9996,2 53388  53.2161 285.1928 0002148  33.6147  48.4896 15.08859739  1309,6917.82,95.436,541.1709999999998,538.1990000000002,0.0
53388.0,STARLINK-4522,PAYLOAD,2022-10-18 08:00:01,15.08827539,0.0002431,53.2174,283.3148,28.0697,158.4928,0.00098063,0.00015348,0.0,0 STARLINK-4522,1 53388U 22097A   22291.33334491  .00015348  00000-0  98063-3 0  9993,2 53388  53.2174 283.3148 0002431  28.0697 158.4928 15.08827539 11065,6917.918000000002,95.438,541.465,538.102,0.0
53388.0,STARLINK-4522,PAYLOAD,2022-10-18 14:00:01,15.08840969,0.000231,53.2149,282.2133,31.172,74.0851,-0.0021845,-0.00034889,0.0,0 STARLINK-4522,1 53388U 22097A   22291.58334491 -.00034889  00000-0 -21845-2 0  9996,2 53388  53.2149 282.2133 0002310  31.1720  74.0851 15.08840969  1303,6917.877,95.437,541.34,538.144,0.0
53388.0,STARLINK-4522,PAYLOAD,2022-10-18 22:00:00,15.08836742,0.0002008,53.2174,280.6919,41.4565,75.3909,-1.179e-05,-4.76e-06,0.0,0 STARLINK-4522,1 53388U 22097A   22291.91667824 -.00000476  00000-0 -11790-4 0  9997,2 53388  53.2174 280.6919 0002008  41.4565  75.3909 15.08836742  1302,6917.89,95.438,541.144,538.366,0.0
53388.0,STARLINK-4522,PAYLOAD,2022-10-19 08:00:01,15.08821619,0.0002423,53.215,278.8472,32.9782,188.342,0.0021335,0.00033814,0.0,0 STARLINK-4522,1 53388U 22097A   22292.33334491  .00033814  00000-0  21335-2 0  9999,2 53388  53.2150 278.8472 0002423  32.9782 188.3420 15.08821619 11217,6917.937,95.439,541.4780000000002,538.125,0.0
